OBJECT_NAME,OBJECT_ID,EPOCH,MEAN_MOTION,ECCENTRICITY,INCLINATION,RA_OF_ASC_NODE,ARG_OF_PERICENTER,MEAN_ANOMALY,EPHEMERIS_TYPE,CLASSIFICATION_TYPE,NORAD_CAT_ID,ELEMENT_SET_NO,REV_AT_EPOCH,BSTAR,MEAN_MOTION_DOT,MEAN_MOTION_DDOT
IRIDIUM 135,2017-083A,2026-07-15T18:09:35.190720,14.34218150,.00021997,86.3987,310.0732,93.9957,266.1490,0,U,43070,999,44824,.20990335E-4,.79E-6,0
IRIDIUM 138,2017-083B,2026-07-15T20:26:35.038752,14.34218786,.00020561,86.3999,309.7332,92.1620,267.9812,0,U,43071,999,44824,.41325133E-4,.136E-5,0
IRIDIUM 116,2017-083C,2026-07-15T19:40:55.073568,14.34217958,.00024607,86.3986,310.0322,98.2597,261.8878,0,U,43072,999,44827,.41009103E-4,.135E-5,0
IRIDIUM 130,2017-083D,2026-07-15T20:35:43.398816,14.34218104,.00022714,86.3993,310.2943,100.5072,259.6380,0,U,43073,999,44822,.41435203E-4,.136E-5,0
IRIDIUM 151,2017-083E,2026-07-15T19:59:11.208768,14.34218240,.00022477,86.3986,310.0853,95.1346,265.0107,0,U,43074,999,44824,.3868696E-4,.128E-5,0
IRIDIUM 134,2017-083F,2026-07-15T20:53:59.197920,14.34218032,.00022211,86.3989,310.0778,94.9825,265.1625,0,U,43075,999,44821,.18565909E-4,.72E-6,0
IRIDIUM 137,2017-083G,2026-07-15T19:31:47.278560,14.34218184,.00027086,86.3992,310.1952,93.4974,266.6531,0,U,43076,999,44827,.22774048E-4,.84E-6,0
IRIDIUM 141,2017-083H,2026-07-15T19:22:39.152640,14.34217813,.00021722,86.3985,310.0267,93.1582,266.9862,0,U,43077,999,44827,.2302196E-4,.84E-6,0
IRIDIUM 153,2017-083J,2026-07-15T18:13:47.398368,14.34217909,.00021133,86.3958,278.5258,94.4853,265.6584,0,U,43078,999,44937,.17937032E-4,.7E-6,0
IRIDIUM 131,2017-083K,2026-07-15T20:44:51.154944,14.34218505,.00022332,86.3990,310.1907,93.6435,266.5016,0,U,43079,999,44821,.32457815E-4,.111E-5,0
IRIDIUM 144,2018-030A,2026-07-15T18:22:55.418880,14.34218004,.00023868,86.3957,278.4517,96.8193,263.3274,0,U,43249,999,43423,.1789348E-4,.7E-6,0
IRIDIUM 149,2018-030B,2026-07-15T18:32:03.432480,14.34218133,.00022585,86.3956,278.4156,93.0254,267.1200,0,U,43250,999,43425,.28589976E-4,.1E-5,0
IRIDIUM 157,2018-030C,2026-07-15T05:35:43.642464,14.34218060,.00022538,86.3960,278.6951,94.2199,265.9254,0,U,43251,999,43415,.43165042E-4,.141E-5,0
IRIDIUM 140,2018-030D,2026-07-15T17:46:23.653920,14.34217805,.00022369,86.3958,278.4954,95.7554,264.3897,0,U,43252,999,43428,.46305929E-4,.149E-5,0
IRIDIUM 145,2018-030E,2026-07-15T07:25:19.393536,14.34217461,.00025431,86.3957,278.6477,100.4482,259.7000,0,U,43253,999,43415,.33886785E-4,.115E-5,0
IRIDIUM 146,2018-030F,2026-07-15T06:57:55.429632,14.34217577,.00023758,86.3959,278.6680,96.3853,263.7614,0,U,43254,999,43416,.16690871E-4,.67E-6,0
IRIDIUM 148,2018-030G,2026-07-15T17:55:31.687392,14.34218168,.00023358,86.3960,278.5205,93.3506,266.7957,0,U,43255,999,43426,.44880605E-4,.145E-5,0
IRIDIUM 142,2018-030H,2026-07-15T18:50:19.462272,14.34218049,.00024455,86.3954,278.3925,96.7055,263.4419,0,U,43256,999,43423,.23364873E-4,.85E-6,0
IRIDIUM 150,2018-030J,2026-07-15T04:40:55.306848,14.34216004,.00021691,86.3956,278.7566,95.4767,264.6676,0,U,43257,999,43417,-.71752641E-4,-.181E-5,0
IRIDIUM 143,2018-030K,2026-07-15T17:37:15.539232,14.34217578,.00023395,86.3962,278.6246,97.3101,262.8361,0,U,43258,999,43418,.2121357E-4,.79E-6,0
IRIDIUM 161,2018-047C,2026-07-15T17:35:56.671584,14.43275872,.00022569,86.4461,76.5332,80.7326,279.4130,0,U,43478,999,42925,.4115135E-4,.159E-5,0
IRIDIUM 152,2018-047D,2026-07-15T18:38:26.337408,14.34218491,.00021604,86.3935,76.3762,83.4825,276.6617,0,U,43479,999,42658,.42631721E-4,.139E-5,0
IRIDIUM 147,2018-047E,2026-07-15T18:47:34.258560,14.34217337,.00022719,86.3938,76.3794,88.6045,271.5411,0,U,43480,999,42658,.20553553E-4,.77E-6,0
IRIDIUM 110,2018-047F,2026-07-15T03:52:30.203616,14.34218629,.00021179,86.3941,76.7320,77.5222,282.6210,0,U,43481,999,42648,.48525903E-4,.156E-5,0
IRIDIUM 162,2018-047G,2026-07-15T04:08:11.183424,14.43278508,.00022002,86.4460,76.6584,86.9927,273.1526,0,U,43482,999,42916,.5163908E-4,.194E-5,0
IRIDIUM 160,2018-061A,2026-07-15T22:40:06.433824,14.34217175,.00022356,86.3940,44.7682,87.0430,273.1021,0,U,43569,999,41749,.35532877E-4,.119E-5,0
IRIDIUM 166,2018-061B,2026-07-15T23:16:38.495136,14.34217846,.00022796,86.3938,44.7078,89.8002,270.3455,0,U,43570,999,41752,.19132353E-4,.73E-6,0
IRIDIUM 158,2018-061C,2026-07-15T22:30:58.440960,14.34217908,.00020879,86.3939,44.7307,88.3591,271.7844,0,U,43571,999,41748,.19221323E-4,.74E-6,0
IRIDIUM 165,2018-061D,2026-07-15T23:07:30.573120,14.34217059,.00022843,86.3939,44.7668,91.0677,269.0780,0,U,43572,999,41751,.2471128E-5,.27E-6,0
IRIDIUM 155,2018-061E,2026-07-15T12:09:54.440640,14.34217784,.00021008,86.3936,44.8262,89.9376,270.2060,0,U,43573,999,41741,.26604935E-4,.94E-6,0
